{
    "links": {
        "self": "http://www.neowsapp.com/rest/v1/neo/3797496?api_key=iIulBulltgU6a56xZRHN4H3l9WmuAYTsLGpBGhQ2"
    },
    "id": "3797496",
    "neo_reference_id": "3797496",
    "name": "(2018 AW3)",
    "designation": "2018 AW3",
    "nasa_jpl_url": "http://ssd.jpl.nasa.gov/sbdb.cgi?sstr=3797496",
    "absolute_magnitude_h": 24.0,
    "estimated_diameter": {
        "kilometers": {
            "estimated_diameter_min": 0.0421264611,
            "estimated_diameter_max": 0.0941976306
        },
        "meters": {
            "estimated_diameter_min": 42.1264610556,
            "estimated_diameter_max": 94.1976305719
        },
        "miles": {
            "estimated_diameter_min": 0.0261761612,
            "estimated_diameter_max": 0.0585316759
        },
        "feet": {
            "estimated_diameter_min": 138.2101784897,
            "estimated_diameter_max": 309.0473542854
        }
    },
    "is_potentially_hazardous_asteroid": false,
    "close_approach_data": [
        {
            "close_approach_date": "2007-12-25",
            "close_approach_date_full": "2007-Dec-25 20:16",
            "epoch_date_close_approach": 1198613760000,
            "relative_velocity": {
                "kilometers_per_second": "16.2609405462",
                "kilometers_per_hour": "58539.3859663132",
                "miles_per_hour": "36374.0979077905"
            },
            "miss_distance": {
                "astronomical": "0.3671866596",
                "lunar": "142.8356105844",
                "kilometers": "54930342.168575052",
                "miles": "34132131.8955656376"
            },
            "orbiting_body": "Earth"
        },
        {
            "close_approach_date": "2017-07-10",
            "close_approach_date_full": "2017-Jul-10 21:48",
            "epoch_date_close_approach": 1499723280000,
            "relative_velocity": {
                "kilometers_per_second": "13.0316191324",
                "kilometers_per_hour": "46913.8288765064",
                "miles_per_hour": "29150.4288371826"
            },
            "miss_distance": {
                "astronomical": "0.0554659026",
                "lunar": "21.5762361114",
                "kilometers": "8297580.886587462",
                "miles": "5155877.6817004956"
            },
            "orbiting_body": "Earth"
        },
        {
            "close_approach_date": "2018-01-09",
            "close_approach_date_full": "2018-Jan-09 15:03",
            "epoch_date_close_approach": 1515510180000,
            "relative_velocity": {
                "kilometers_per_second": "12.2938922041",
                "kilometers_per_hour": "44258.0119346023",
                "miles_per_hour": "27500.2074712533"
            },
            "miss_distance": {
                "astronomical": "0.1839074825",
                "lunar": "71.5400106925",
                "kilometers": "27512167.659062275",
                "miles": "17095268.265218395"
            },
            "orbiting_body": "Earth"
        },
        {
            "close_approach_date": "2018-12-24",
            "close_approach_date_full": "2018-Dec-24 14:07",
            "epoch_date_close_approach": 1545660420000,
            "relative_velocity": {
                "kilometers_per_second": "18.8308914694",
                "kilometers_per_hour": "67791.2092899178",
                "miles_per_hour": "42122.8211279492"
            },
            "miss_distance": {
                "astronomical": "0.477095594",
                "lunar": "185.590186066",
                "kilometers": "71372484.64878478",
                "miles": "44348805.479318764"
            },
            "orbiting_body": "Earth"
        },
        {
            "close_approach_date": "2029-01-03",
            "close_approach_date_full": "2029-Jan-03 23:14",
            "epoch_date_close_approach": 1862176440000,
            "relative_velocity": {
                "kilometers_per_second": "12.5775792631",
                "kilometers_per_hour": "45279.2853471784",
                "miles_per_hour": "28134.7870536398"
            },
            "miss_distance": {
                "astronomical": "0.1707970899",
                "lunar": "66.4400679711",
                "kilometers": "25550880.851238513",
                "miles": "15876581.1541089594"
            },
            "orbiting_body": "Earth"
        }
    ],
    "orbital_data": {
        "orbit_id": "2",
        "orbit_determination_date": "2019-07-17 06:12:40",
        "first_observation_date": "2018-01-11",
        "last_observation_date": "2018-01-15",
        "data_arc_in_days": 4,
        "observations_used": 19,
        "orbit_uncertainty": "8",
        "minimum_orbit_intersection": ".0564278",
        "jupiter_tisserand_invariant": "5.700",
        "epoch_osculation": "2458131.5",
        "eccentricity": ".1261735672660784",
        "semi_major_axis": "1.066882732551979",
        "inclination": "23.71585462745133",
        "ascending_node_longitude": "110.3699084671471",
        "orbital_period": "402.5070171537091",
        "perihelion_distance": ".9322703323313146",
        "perihelion_argument": "222.3306849971863",
        "aphelion_distance": "1.201495132772644",
        "perihelion_time": "2457984.025764259309",
        "mean_anomaly": "131.9001224924596",
        "mean_motion": ".894394345086718",
        "equinox": "J2000",
        "orbit_class": {
            "orbit_class_type": "APO",
            "orbit_class_description": "Near-Earth asteroid orbits which cross the Earth’s orbit similar to that of 1862 Apollo",
            "orbit_class_range": "a (semi-major axis) > 1.0 AU; q (perihelion) < 1.017 AU"
        }
    },
    "is_sentry_object": false
}